[{"OBJECT_NAME":"RISING 2","OBJECT_ID":"2014-029D","EPOCH":"2026-03-09T22:49:58.395648","MEAN_MOTION":14.97431818,"ECCENTRICITY":0.00015683,"INCLINATION":97.6622,"RA_OF_ASC_NODE":139.362,"ARG_OF_PERICENTER":264.4485,"MEAN_ANOMALY":95.6558,"EPHEMERIS_TYPE":0,"CLASSIFICATION_TYPE":"U","NORAD_CAT_ID":39769,"ELEMENT_SET_NO":999,"REV_AT_EPOCH":63869,"BSTAR":0.00068568934,"MEAN_MOTION_DOT":7.926e-5,"MEAN_MOTION_DDOT":0},{"OBJECT_NAME":"STARLINK-34533","OBJECT_ID":"2025-142V","EPOCH":"2026-03-09T23:20:59.104320","MEAN_MOTION":14.9831918,"ECCENTRICITY":0.00029794,"INCLINATION":70.0006,"RA_OF_ASC_NODE":313.7262,"ARG_OF_PERICENTER":274.2508,"MEAN_ANOMALY":85.8311,"EPHEMERIS_TYPE":0,"CLASSIFICATION_TYPE":"U","NORAD_CAT_ID":64715,"ELEMENT_SET_NO":999,"REV_AT_EPOCH":3950,"BSTAR":0.00061409259,"MEAN_MOTION_DOT":7.24e-5,"MEAN_MOTION_DDOT":0}]
